NORAD_CAT_ID,OBJECT_NAME,OBJECT_TYPE,EPOCH,MEAN_MOTION,ECCENTRICITY,INCLINATION,RA_OF_ASC_NODE,ARG_OF_PERICENTER,MEAN_ANOMALY,BSTAR,MEAN_MOTION_DOT,MEAN_MOTION_DDOT,TLE_LINE0,TLE_LINE1,TLE_LINE2,SEMIMAJOR_AXIS,PERIOD,APOGEE,PERIGEE,DECAYED
52303.0,STARLINK-3742,PAYLOAD,2024-03-26 15:40:32,15.08892041,0.0001803,53.2186,60.0602,79.3007,280.8188,0.00045708,7.004e-05,0.0,0 STARLINK-3742,1 52303U 22041AU  24086.65315078  .00007004  00000-0  45708-3 0  9995,2 52303  53.2186  60.0602 0001803  79.3007 280.8188 15.08892041108082,6917.721,95.434,540.834,538.339,0.0
52303.0,STARLINK-3742,PAYLOAD,2024-03-27 04:23:42,15.08817923,0.0001426,53.2187,57.6813,96.6811,263.4344,-0.00013684,-2.464e-05,0.0,0 STARLINK-3742,1 52303U 22041AU  24087.18312826 -.00002464  00000-0 -13684-3 0  9997,2 52303  53.2187  57.6813 0001426  96.6811 263.4344 15.08817923108161,6917.948,95.439,540.799,538.826,0.0
52303.0,STARLINK-3742,PAYLOAD,2024-03-27 15:31:24,15.08823918,0.0001389,53.2193,55.6,95.2451,264.8699,-8.7389e-05,-1.678e-05,0.0,0 STARLINK-3742,1 52303U 22041AU  24087.64680577 -.00001678  00000-0 -87389-4 0  9999,2 52303  53.2193  55.6000 0001389  95.2451 264.8699 15.08823918108234,6917.93,95.439,540.755,538.834,0.0
52303.0,STARLINK-3742,PAYLOAD,2024-03-27 21:52:56,15.08825613,0.0001791,53.2199,54.4098,92.3941,267.7256,-7.5148e-05,-1.483e-05,0.0,0 STARLINK-3742,1 52303U 22041AU  24087.91176769 -.00001483  00000-0 -75148-4 0  9996,2 52303  53.2199  54.4098 0001791  92.3941 267.7256 15.08825613108272,6917.924,95.438,541.028,538.55,0.0
52303.0,STARLINK-3742,PAYLOAD,2024-03-28 04:14:28,15.0883648,0.0001695,53.2184,53.2222,127.0518,233.0629,-1.9313e-05,-5.95e-06,0.0,0 STARLINK-3742,1 52303U 22041AU  24088.17672009 -.00000595  00000-0 -19313-4 0  9998,2 52303  53.2184  53.2222 0001695 127.0518 233.0629 15.08836480108310,6917.891,95.438,540.929,538.584,0.0
52303.0,STARLINK-3742,PAYLOAD,2024-03-28 07:25:14,15.08831221,0.0001381,53.2189,52.6261,99.2136,260.9013,0.00011911,1.608e-05,0.0,0 STARLINK-3742,1 52303U 22041AU  24088.30919992  .00001608  00000-0  11911-3 0  9997,2 52303  53.2189  52.6261 0001381  99.2136 260.9013 15.08831221108335,6917.907,95.438,540.728,538.817,0.0
52303.0,STARLINK-3742,PAYLOAD,2024-03-28 21:43:42,15.08867696,8.73e-05,53.2186,49.9493,86.1111,273.9981,-0.00047568,-7.856e-05,0.0,0 STARLINK-3742,1 52303U 22041AU  24088.90534741 -.00007856  00000-0 -47568-3 0  9998,2 52303  53.2186  49.9493 0000873  86.1111 273.9981 15.08867696108424,6917.796,95.436,540.265,539.057,0.0
52303.0,STARLINK-3742,PAYLOAD,2024-03-29 04:05:15,15.08821008,0.0001338,53.2192,48.7585,102.4636,257.6506,0.00015154,2.123e-05,0.0,0 STARLINK-3742,1 52303U 22041AU  24089.17032100  .00002123  00000-0  15154-3 0  9996,2 52303  53.2192  48.7585 0001338 102.4636 257.6506 15.08821008108464,6917.938,95.439,540.729,538.878,0.0
52303.0,STARLINK-3742,PAYLOAD,2024-03-29 21:34:30,15.08834167,0.0001514,53.2195,45.488,117.9236,242.191,9.0316e-05,1.149e-05,0.0,0 STARLINK-3742,1 52303U 22041AU  24089.89896141  .00001149  00000-0  90316-4 0  9999,2 52303  53.2195  45.4880 0001514 117.9236 242.1910 15.08834167108572,6917.898,95.438,540.811,538.716,0.0
52303.0,STARLINK-3742,PAYLOAD,2024-03-30 13:28:20,15.08847874,0.000129,53.2193,42.5178,101.2732,258.8405,0.00014425,2.009e-05,0.0,0 STARLINK-3742,1 52303U 22041AU  24090.56135263  .00002009  00000-0  14425-3 0  9998,2 52303  53.2193  42.5178 0001290 101.2732 258.8405 15.08847874108679,6917.856,95.437,540.614,538.829,0.0
52303.0,STARLINK-3742,PAYLOAD,2024-03-30 19:49:54,15.08837223,0.0001673,53.2218,41.3319,97.7305,262.3877,0.0001224,1.66e-05,0.0,0 STARLINK-3742,1 52303U 22041AU  24090.82632280  .00001660  00000-0  12240-3 0  9993,2 52303  53.2218  41.3319 0001673  97.7305 262.3877 15.08837223108716,6917.889,95.438,540.911,538.597,0.0
52303.0,STARLINK-3742,PAYLOAD,2024-03-31 03:46:50,15.08827771,0.0001287,53.2197,39.8432,93.7727,266.3412,2.9375e-05,1.8e-06,0.0,0 STARLINK-3742,1 52303U 22041AU  24091.15753386  .00000180  00000-0  29375-4 0  9995,2 52303  53.2197  39.8432 0001287  93.7727 266.3412 15.08827771108766,6917.918,95.438,540.673,538.892,0.0
52303.0,STARLINK-3742,PAYLOAD,2024-03-31 13:19:08,15.08842714,0.0001222,53.2198,38.0568,87.2298,272.8834,0.00010501,1.384e-05,0.0,0 STARLINK-3742,1 52303U 22041AU  24091.55496206  .00001384  00000-0  10501-3 0  9991,2 52303  53.2198  38.0568 0001222  87.2298 272.8834 15.08842714108829,6917.872,95.437,540.582,538.892,0.0
52303.0,STARLINK-3742,PAYLOAD,2024-04-01 03:37:37,15.08834209,0.0001591,53.2208,35.3862,92.3872,267.7303,3.9069e-07,-2.82e-06,0.0,0 STARLINK-3742,1 52303U 22041AU  24092.15113422 -.00000282  00000-0  39069-6 0  9994,2 52303  53.2208  35.3862 0001591  92.3872 267.7303 15.08834209108916,6917.898,95.438,540.864,538.662,0.0
52303.0,STARLINK-3742,PAYLOAD,2024-04-01 13:09:55,15.08846843,0.0001468,53.2209,33.5982,88.8856,271.2305,2.6812e-05,1.39e-06,0.0,0 STARLINK-3742,1 52303U 22041AU  24092.54856481  .00000139  00000-0  26812-4 0  9996,2 52303  53.2209  33.5982 0001468  88.8856 271.2305 15.08846843108970,6917.859,95.437,540.74,538.709,0.0
52303.0,STARLINK-3742,PAYLOAD,2024-04-02 13:00:42,15.08856266,0.0001354,53.2198,29.1365,76.1097,284.0046,0.0001444,2.012e-05,0.0,0 STARLINK-3742,1 52303U 22041AU  24093.54215457  .00002012  00000-0  14440-3 0  9994,2 52303  53.2198  29.1365 0001354  76.1097 284.0046 15.08856266109126,6917.831,95.437,540.632,538.759,0.0
52303.0,STARLINK-3742,PAYLOAD,2024-04-03 04:54:35,15.08837649,0.0001382,53.219,26.1624,85.9621,274.1529,-1.9032e-06,-3.18e-06,0.0,0 STARLINK-3742,1 52303U 22041AU  24094.20457245 -.00000318  00000-0 -19032-5 0  9994,2 52303  53.2190  26.1624 0001382  85.9621 274.1529 15.08837649109226,6917.888,95.438,540.709,538.797,0.0
52303.0,STARLINK-3742,PAYLOAD,2024-04-03 12:51:30,15.08844735,0.0001463,53.2196,24.6768,85.9908,274.1252,3.362e-05,2.47e-06,0.0,0 STARLINK-3742,1 52303U 22041AU  24094.53576660  .00000247  00000-0  33620-4 0  9990,2 52303  53.2196  24.6768 0001463  85.9908 274.1252 15.08844735109274,6917.866,95.437,540.743,538.719,0.0
52303.0,STARLINK-3742,PAYLOAD,2024-04-03 19:13:03,15.08838786,0.0001567,53.2202,23.4878,89.4434,270.6738,4.055e-05,3.57e-06,0.0,0 STARLINK-3742,1 52303U 22041AU  24094.80073110  .00000357  00000-0  40550-4 0  9994,2 52303  53.2202  23.4878 0001567  89.4434 270.6738 15.08838786109313,6917.884,95.438,540.833,538.665,0.0
52303.0,STARLINK-3742,PAYLOAD,2024-04-04 12:42:17,15.08848207,0.0001507,53.2198,20.2168,85.0203,275.0961,-1.9593e-05,-6e-06,0.0,0 STARLINK-3742,1 52303U 22041AU  24095.52936448 -.00000600  00000-0 -19593-4 0  9992,2 52303  53.2198  20.2168 0001507  85.0203 275.0961 15.08848207109422,6917.855,95.437,540.763,538.678,0.0
52303.0,STARLINK-3742,PAYLOAD,2024-04-04 22:14:35,15.08852137,0.0001719,53.2208,18.4312,89.5565,270.5624,-0.00014185,-2.546e-05,0.0,0 STARLINK-3742,1 52303U 22041AU  24095.92680384 -.00002546  00000-0 -14185-3 0  9993,2 52303  53.2208  18.4312 0001719  89.5565 270.5624 15.08852137109488,6917.843,95.437,540.897,538.519,0.0
52303.0,STARLINK-3742,PAYLOAD,2024-04-05 04:36:08,15.08843661,0.000146,53.2204,17.244,83.145,276.9708,1.8223e-05,2e-08,0.0,0 STARLINK-3742,1 52303U 22041AU  24096.19176673  .00000002  00000-0  18223-4 0  9995,2 52303  53.2204  17.2440 0001460  83.1450 276.9708 15.08843661109529,6917.869,95.437,540.744,538.724,0.0
52303.0,STARLINK-3742,PAYLOAD,2024-04-05 22:05:23,15.08839088,0.0001478,53.219,13.971,91.2259,268.8903,3.1538e-05,2.14e-06,0.0,0 STARLINK-3742,1 52303U 22041AU  24096.92040856  .00000214  00000-0  31538-4 0  9998,2 52303  53.2190  13.9710 0001478  91.2259 268.8903 15.08839088109639,6917.883,95.438,540.771,538.726,0.0
52303.0,STARLINK-3742,PAYLOAD,2024-04-06 01:16:09,15.08838317,0.0001444,53.219,13.3742,95.5246,264.5911,2.6003e-05,1.26e-06,0.0,0 STARLINK-3742,1 52303U 22041AU  24097.05288895  .00000126  00000-0  26003-4 0  9993,2 52303  53.2190  13.3742 0001444  95.5246 264.5911 15.08838317109652,6917.886,95.438,540.749,538.752,0.0
52303.0,STARLINK-3742,PAYLOAD,2024-04-06 10:48:27,15.08844688,0.0001446,53.2198,11.5931,96.3591,263.7566,6.668e-05,7.74e-06,0.0,0 STARLINK-3742,1 52303U 22041AU  24097.45032326  .00000774  00000-0  66680-4 0  9997,2 52303  53.2198  11.5931 0001446  96.3591 263.7566 15.08844688109716,6917.866,95.437,540.731,538.731,0.0
52303.0,STARLINK-3742,PAYLOAD,2024-04-06 18:45:24,15.08831381,0.0001853,53.2199,10.1057,81.5922,278.528,1.7663e-05,-7e-08,0.0,0 STARLINK-3742,1 52303U 22041AU  24097.78153539 -.00000007  00000-0  17663-4 0  9990,2 52303  53.2199  10.1057 0001853  81.5922 278.5280 15.08831381109765,6917.907,95.438,541.054,538.49,0.0
52303.0,STARLINK-3742,PAYLOAD,2024-04-06 21:56:11,15.08825556,0.0001396,53.2201,9.5112,84.4083,275.7069,-3.0306e-05,-7.7e-06,0.0,0 STARLINK-3742,1 52303U 22041AU  24097.91402035 -.00000770  00000-0 -30306-4 0  9990,2 52303  53.2201   9.5112 0001396  84.4083 275.7069 15.08825556109788,6917.925,95.438,540.755,538.824,0.0
52303.0,STARLINK-3742,PAYLOAD,2024-04-07 10:39:15,15.08841135,0.0001407,53.2202,7.1344,88.654,271.4613,4.8604e-05,4.86e-06,0.0,0 STARLINK-3742,1 52303U 22041AU  24098.44393048  .00000486  00000-0  48604-4 0  9994,2 52303  53.2202   7.1344 0001407  88.6540 271.4613 15.08841135109865,6917.877,95.437,540.715,538.769,0.0
52303.0,STARLINK-3742,PAYLOAD,2024-04-07 21:46:58,15.08833234,0.0001405,53.2208,5.0536,98.7247,261.3904,1.1189e-05,-1.1e-06,0.0,0 STARLINK-3742,1 52303U 22041AU  24098.90761790 -.00000110  00000-0  11189-4 0  9991,2 52303  53.2208   5.0536 0001405  98.7247 261.3904 15.08833234109935,6917.901,95.438,540.738,538.794,0.0
52303.0,STARLINK-3742,PAYLOAD,2024-04-08 00:57:44,15.08834151,0.0001431,53.2205,4.4598,103.0701,257.0451,2.863e-05,1.68e-06,0.0,0 STARLINK-3742,1 52303U 22041AU  24099.04009824  .00000168  00000-0  28630-4 0  9991,2 52303  53.2205   4.4598 0001431 103.0701 257.0451 15.08834151109957,6917.898,95.438,540.753,538.773,0.0
